{
  "links" : {
    "next" : "https://api.nasa.gov/neo/rest/v1/feed?start_date=2013-11-09&end_date=2013-11-09&detailed=true&api_key=t0TVs3DtDT2H8Oy2Zy8m2eVrNsAVKAexjcZXUckd",
    "prev" : "https://api.nasa.gov/neo/rest/v1/feed?start_date=2013-11-07&end_date=2013-11-07&detailed=true&api_key=t0TVs3DtDT2H8Oy2Zy8m2eVrNsAVKAexjcZXUckd",
    "self" : "https://api.nasa.gov/neo/rest/v1/feed?start_date=2013-11-08&end_date=2013-11-08&detailed=true&api_key=t0TVs3DtDT2H8Oy2Zy8m2eVrNsAVKAexjcZXUckd"
  },
  "element_count" : 11,
  "near_earth_objects" : {
    "2013-11-08" : [ {
      "links" : {
        "self" : "https://api.nasa.gov/neo/rest/v1/neo/3648846?api_key=t0TVs3DtDT2H8Oy2Zy8m2eVrNsAVKAexjcZXUckd"
      },
      "neo_reference_id" : "3648846",
      "name" : "(2013 TS4)",
      "nasa_jpl_url" : "http://ssd.jpl.nasa.gov/sbdb.cgi?sstr=3648846",
      "absolute_magnitude_h" : 20.9,
      "estimated_diameter" : {
        "kilometers" : {
          "estimated_diameter_min" : 0.1756123185,
          "estimated_diameter_max" : 0.3926810818
        },
        "meters" : {
          "estimated_diameter_min" : 175.6123184804,
          "estimated_diameter_max" : 392.6810818086
        },
        "miles" : {
          "estimated_diameter_min" : 0.1091204019,
          "estimated_diameter_max" : 0.2440006365
        },
        "feet" : {
          "estimated_diameter_min" : 576.1559189633,
          "estimated_diameter_max" : 1288.3238004408
        }
      },
      "is_potentially_hazardous_asteroid" : false,
      "close_approach_data" : [ {
        "close_approach_date" : "2013-11-08",
        "epoch_date_close_approach" : 1383897600000,
        "relative_velocity" : {
          "kilometers_per_second" : "1.8754846252",
          "kilometers_per_hour" : "6751.7446508815",
          "miles_per_hour" : "4195.2715582102"
        },
        "miss_distance" : {
          "astronomical" : "0.2474464228",
          "lunar" : "96.256652832",
          "kilometers" : "37017456",
          "miles" : "23001582"
        },
        "orbiting_body" : "Earth"
      } ],
      "orbital_data" : {
        "orbit_id" : "40",
        "orbit_determination_date" : "2017-04-06 08:44:22",
        "orbit_uncertainty" : "4",
        "minimum_orbit_intersection" : ".241171",
        "jupiter_tisserand_invariant" : "3.832",
        "epoch_osculation" : "2458000.5",
        "eccentricity" : ".3610800568936051",
        "semi_major_axis" : "1.928584505812484",
        "inclination" : "2.628796007418694",
        "ascending_node_longitude" : "217.3455633886079",
        "orbital_period" : "978.2648222498186",
        "perihelion_distance" : "1.232211102729587",
        "perihelion_argument" : "186.2745686127095",
        "aphelion_distance" : "2.624957908895381",
        "perihelion_time" : "2457576.662920253944",
        "mean_anomaly" : "155.9714151406086",
        "mean_motion" : ".3679985130938983",
        "equinox" : "J2000"
      }
    }, {
      "links" : {
        "self" : "https://api.nasa.gov/neo/rest/v1/neo/2169352?api_key=t0TVs3DtDT2H8Oy2Zy8m2eVrNsAVKAexjcZXUckd"
      },
      "neo_reference_id" : "2169352",
      "name" : "169352 (2001 UY16)",
      "nasa_jpl_url" : "http://ssd.jpl.nasa.gov/sbdb.cgi?sstr=2169352",
      "absolute_magnitude_h" : 19.3,
      "estimated_diameter" : {
        "kilometers" : {
          "estimated_diameter_min" : 0.3669061375,
          "estimated_diameter_max" : 0.8204270649
        },
        "meters" : {
          "estimated_diameter_min" : 366.9061375314,
          "estimated_diameter_max" : 820.4270648822
        },
        "miles" : {
          "estimated_diameter_min" : 0.2279848336,
          "estimated_diameter_max" : 0.5097895857
        },
        "feet" : {
          "estimated_diameter_min" : 1203.7603322587,
          "estimated_diameter_max" : 2691.6899315481
        }
      },
      "is_potentially_hazardous_asteroid" : false,
      "close_approach_data" : [ {
        "close_approach_date" : "2013-11-08",
        "epoch_date_close_approach" : 1383897600000,
        "relative_velocity" : {
          "kilometers_per_second" : "17.4487883159",
          "kilometers_per_hour" : "62815.637937208",
          "miles_per_hour" : "39031.1945838168"
        },
        "miss_distance" : {
          "astronomical" : "0.319454217",
          "lunar" : "124.2676925659",
          "kilometers" : "47789672",
          "miles" : "29695126"
        },
        "orbiting_body" : "Earth"
      } ],
      "orbital_data" : {
        "orbit_id" : "58",
        "orbit_determination_date" : "2017-04-06 09:26:03",
        "orbit_uncertainty" : "0",
        "minimum_orbit_intersection" : ".124234",
        "jupiter_tisserand_invariant" : "3.412",
        "epoch_osculation" : "2458000.5",
        "eccentricity" : ".5182671782331811",
        "semi_major_axis" : "2.083575812902788",
        "inclination" : "32.30069483561291",
        "ascending_node_longitude" : "32.2607683588762",
        "orbital_period" : "1098.531179131781",
        "perihelion_distance" : "1.003726855714753",
        "perihelion_argument" : "48.39703119705649",
        "aphelion_distance" : "3.163424770090822",
        "perihelion_time" : "2457748.052019333137",
        "mean_anomaly" : "82.72980755257059",
        "mean_motion" : ".3277103161373393",
        "equinox" : "J2000"
      }
    }, {
      "links" : {
        "self" : "https://api.nasa.gov/neo/rest/v1/neo/3388353?api_key=t0TVs3DtDT2H8Oy2Zy8m2eVrNsAVKAexjcZXUckd"
      },
      "neo_reference_id" : "3388353",
      "name" : "(2007 TC66)",
      "nasa_jpl_url" : "http://ssd.jpl.nasa.gov/sbdb.cgi?sstr=3388353",
      "absolute_magnitude_h" : 19.5,
      "estimated_diameter" : {
        "kilometers" : {
          "estimated_diameter_min" : 0.3346223745,
          "estimated_diameter_max" : 0.7482383761
        },
        "meters" : {
          "estimated_diameter_min" : 334.6223744549,
          "estimated_diameter_max" : 748.2383760735
        },
        "miles" : {
          "estimated_diameter_min" : 0.2079246394,
          "estimated_diameter_max" : 0.464933628
        },
        "feet" : {
          "estimated_diameter_min" : 1097.8424710066,
          "estimated_diameter_max" : 2454.8503937571
        }
      },
      "is_potentially_hazardous_asteroid" : false,
      "close_approach_data" : [ {
        "close_approach_date" : "2013-11-08",
        "epoch_date_close_approach" : 1383897600000,
        "relative_velocity" : {
          "kilometers_per_second" : "24.1832473598",
          "kilometers_per_hour" : "87059.6904954485",
          "miles_per_hour" : "54095.5060192413"
        },
        "miss_distance" : {
          "astronomical" : "0.1816350122",
          "lunar" : "70.6560211182",
          "kilometers" : "27172210",
          "miles" : "16884028"
        },
        "orbiting_body" : "Earth"
      } ],
      "orbital_data" : {
        "orbit_id" : "25",
        "orbit_determination_date" : "2016-10-10 06:46:11",
        "orbit_uncertainty" : "0",
        "minimum_orbit_intersection" : ".139986",
        "jupiter_tisserand_invariant" : "3.388",
        "epoch_osculation" : "2457600.5",
        "eccentricity" : ".7103821638504607",
        "semi_major_axis" : "2.06888348322815",
        "inclination" : "10.5906114513842",
        "ascending_node_longitude" : "102.4996520040937",
        "orbital_period" : "1086.932252047233",
        "perihelion_distance" : ".5991855576580586",
        "perihelion_argument" : "34.90714631099919",
        "aphelion_distance" : "3.538581408798243",
        "perihelion_time" : "2457735.829877281469",
        "mean_anomaly" : "315.1777438478182",
        "mean_motion" : ".3312073952373217",
        "equinox" : "J2000"
      }
    } ]
  }
}